     2.100          NAVIGATION                              RINEX VERSION / TYPE
fic2rin                                 04/07/2015 00:42:19 PGM / RUN BY / DATE
                                                            END OF HEADER
 4 15  4  6 18  0  0.0 -.106859952211D-04 -.102318153949D-11  .000000000000D+00
     .780000000000D+02 -.234687500000D+02  .522771775543D-08  .260836123441D+01
    -.127218663692D-05  .111417999724D-01  .415369868279D-05  .515370328712D+04
     .151200000000D+06  .875443220139D-07 -.107026925466D+01 -.130385160446D-06
     .939424550872D+00  .287250000000D+03  .105400335380D+01 -.834499045949D-08
    -.982183769039D-10  .100000000000D+01  .183900000000D+04  .000000000000D+00
     .240000000000D+01  .000000000000D+00 -.651925802231D-08  .780000000000D+02
     .144006000000D+06  .400000000000D+01
 5 15  4  6 18  0  0.0 -.257215462625D-03  .488853402203D-11  .000000000000D+00
     .490000000000D+02 -.113750000000D+02  .463447875893D-08 -.546216354664D+00
    -.430271029472D-06  .402662192937D-02  .114273279905D-04  .515380852699D+04
     .151200000000D+06  .577419996262D-07 -.150855117550D-01 -.167638063431D-07
     .947094723988D+00  .148843750000D+03  .398196973611D+00 -.808212236712D-08
    -.310727228751D-09  .100000000000D+01  .183900000000D+04  .000000000000D+00
     .240000000000D+01  .000000000000D+00 -.107102096081D-07  .490000000000D+02
     .144006000000D+06  .400000000000D+01
 6 15  4  6 18  0  0.0  .128800049424D-03  .100044417195D-10  .000000000000D+00
     .940000000000D+02 -.234062500000D+02  .482020078071D-08 -.144417447210D+01
    -.114738941193D-05  .218585249968D-03  .466592609882D-05  .515371833420D+04
     .151200000000D+06 -.484287738800D-07 -.105767088796D+01 -.391155481339D-07
     .961654003629D+00  .290500000000D+03 -.313314719095D+01 -.825070081766D-08
    -.122862260563D-09  .100000000000D+01  .183900000000D+04  .000000000000D+00
     .240000000000D+01  .000000000000D+00  .465661287308D-08  .940000000000D+02
     .144006000000D+06  .400000000000D+01
 7 15  4  6 18  0  0.0  .453368294984D-03  .272848410532D-11  .000000000000D+00
     .104000000000D+03 -.393437500000D+02  .478698511143D-08  .222954615814D+01
    -.201724469662D-05  .814856169745D-02  .238791108131D-05  .515372352409D+04
     .151200000000D+06 -.260770320892D-06  .211108955730D+01  .745058059692D-08
     .970491332288D+00  .342625000000D+03 -.275700153787D+01 -.840856453618D-08
    -.177864551630D-09  .100000000000D+01  .183900000000D+04  .000000000000D+00
     .340000000000D+01  .000000000000D+00 -.111758708954D-07  .104000000000D+03
     .144006000000D+06  .400000000000D+01
 8 15  4  6 18  0  0.0  .192462466657D-04  .341060513165D-12  .000000000000D+00
     .590000000000D+02 -.566875000000D+02  .412695761864D-08 -.248136178592D+01
    -.283308327198D-05  .145062274532D-01  .313855707645D-05  .515358868790D+04
     .151200000000D+06  .521540641785D-07  .221748718690D+01 -.370666384697D-06
     .994159368945D+00  .333468750000D+03 -.267979573341D+01 -.796890336538D-08
    -.227509476683D-09  .100000000000D+01  .183900000000D+04  .000000000000D+00
     .340000000000D+01  .630000000000D+02 -.512227416039D-08  .590000000000D+02
     .144006000000D+06  .400000000000D+01
 9 15  4  6 18  0  0.0 -.131146050990D-03 -.864019966684D-11  .000000000000D+00
     .530000000000D+02  .116312500000D+03  .468983820773D-08 -.177786405252D+01
     .602006912231D-05  .425926758908D-03  .758655369282D-05  .515362780952D+04
     .151200000000D+06  .391155481339D-07  .103453892301D+01  .149011611938D-07
     .957841525007D+00  .236937500000D+03  .236575975957D+01 -.819855578847D-08
     .412160025262D-09  .100000000000D+01  .183900000000D+04  .000000000000D+00
     .240000000000D+01  .000000000000D+00  .465661287308D-09  .530000000000D+02
     .144006000000D+06  .400000000000D+01
10 15  4  6 18  0  0.0 -.169907696545D-03 -.136424205266D-11  .000000000000D+00
     .410000000000D+02 -.231250000000D+01  .483913014062D-08 -.170788709098D+00
    -.316649675369D-07  .146190805826D-01  .114459544420D-04  .515368224144D+04
     .151200000000D+06 -.558793544769D-08  .293417479159D-03  .191852450371D-06
     .941888605235D+00  .153000000000D+03  .925577454862D+00 -.834141888215D-08
    -.323227749447D-09  .100000000000D+01  .183900000000D+04  .000000000000D+00
     .340000000000D+01  .000000000000D+00 -.325962901115D-08  .410000000000D+02
     .144006000000D+06  .400000000000D+01
11 15  4  6 18  0  0.0 -.569525174797D-03 -.261479726760D-11  .000000000000D+00
     .540000000000D+02  .140625000000D+02  .632383484168D-08  .229357280426D+01
     .564381480217D-06  .156616476597D-01  .313483178616D-05  .515372367477D+04
     .151200000000D+06  .260770320892D-06 -.139632817684D+01 -.141561031342D-06
     .892362296323D+00  .279781250000D+03  .139311664888D+01 -.884036823682D-08
     .167149819604D-09  .100000000000D+01  .183900000000D+04  .000000000000D+00
     .240000000000D+01  .000000000000D+00 -.121071934700D-07  .540000000000D+02
     .144006000000D+06  .400000000000D+01
12 15  4  6 18  0  0.0  .282662454993D-03  .306954461848D-11  .000000000000D+00
     .310000000000D+02 -.860937500000D+02  .359729269882D-08  .172398170900D+01
    -.445917248726D-05  .549294694792D-02  .112410634756D-04  .515371579552D+04
     .151200000000D+06 -.987201929092D-07 -.310446713404D+01  .335276126862D-07
     .989845842344D+00  .179531250000D+03  .551584797344D+00 -.759710216408D-08
    -.285726187357D-09  .100000000000D+01  .183900000000D+04  .000000000000D+00
     .240000000000D+01  .000000000000D+00 -.125728547573D-07  .310000000000D+02
     .144006000000D+06  .400000000000D+01
13 15  4  6 18  0  0.0 -.103306490928D-03 -.329691829393D-11  .000000000000D+00
     .190000000000D+02  .111125000000D+03  .435839583039D-08  .298937230578D+01
     .567175447941D-05  .528879382182D-02  .683404505253D-05  .515368808365D+04
     .151200000000D+06  .987201929092D-07  .114891051822D+01  .689178705215D-07
     .974490686991D+00  .253250000000D+03  .206702693727D+01 -.804354933183D-08
     .423946230491D-09  .100000000000D+01  .183900000000D+04  .000000000000D+00
     .240000000000D+01  .000000000000D+00 -.116415321827D-07  .190000000000D+02
     .144006000000D+06  .400000000000D+01
14 15  4  6 18  0  0.0  .728722661734D-04 -.284217094304D-11  .000000000000D+00
     .270000000000D+02  .961875000000D+02  .449554440033D-08 -.144223867160D+01
     .519491732121D-05  .792678049766D-02  .648386776447D-05  .515358110237D+04
     .151200000000D+06  .102445483208D-06  .111464071863D+01  .137835741043D-06
     .967017368521D+00  .257875000000D+03 -.197340391210D+01 -.808140805165D-08
     .380730144653D-09  .100000000000D+01  .183900000000D+04  .000000000000D+00
     .240000000000D+01  .000000000000D+00 -.931322574615D-08  .270000000000D+02
     .144006000000D+06  .400000000000D+01
15 15  4  6 18  0  0.0 -.242030713707D-03 -.216004991671D-11  .000000000000D+00
     .310000000000D+02  .111312500000D+03  .518414451186D-08 -.207437676790D+01
     .549107789993D-05  .712444738019D-02  .800006091595D-05  .515362445259D+04
     .151200000000D+06  .838190317154D-07  .992151625063D+00 -.139698386192D-06
     .933775207440D+00  .210468750000D+03  .389203474058D+00 -.841713632180D-08
     .454661795632D-09  .100000000000D+01  .183900000000D+04  .000000000000D+00
     .240000000000D+01  .000000000000D+00 -.107102096081D-07  .310000000000D+02
     .144006000000D+06  .400000000000D+01
16 15  4  6 18  0  0.0 -.141172204167D-03  .352429196937D-11  .000000000000D+00
     .310000000000D+02 -.699375000000D+02  .364158025786D-08 -.413450440065D+00
    -.376254320145D-05  .824976328295D-02  .107642263174D-04  .515377939987D+04
     .151200000000D+06  .128522515297D-06 -.308581260103D+01  .763684511185D-07
     .990400692061D+00  .187562500000D+03  .269285731117D+00 -.766603360678D-08
    -.257153568621D-09  .100000000000D+01  .183900000000D+04  .000000000000D+00
     .240000000000D+01  .000000000000D+00 -.102445483208D-07  .310000000000D+02
     .144006000000D+06  .400000000000D+01
17 15  4  6 18  0  0.0 -.164972152561D-03 -.193267624127D-11  .000000000000D+00
     .770000000000D+02  .428437500000D+02  .431946563737D-08 -.131560975979D+01
     .228174030781D-05  .101132824784D-01  .883638858795D-05  .515374049187D+04
     .151200000000D+06  .227242708206D-06 -.205893535158D+01  .238418579102D-06
     .971697035722D+00  .216343750000D+03 -.201439115795D+01 -.794461663946D-08
     .463947896721D-09  .100000000000D+01  .183900000000D+04  .000000000000D+00
     .240000000000D+01  .000000000000D+00 -.107102096081D-07  .770000000000D+02
     .144006000000D+06  .400000000000D+01
19 15  4  6 18  0  0.0 -.506477896124D-03 -.125055521494D-11  .000000000000D+00
     .970000000000D+02  .440937500000D+02  .429625038464D-08 -.209870482199D+01
     .220909714699D-05  .111617342336D-01  .814720988274D-05  .515370926476D+04
     .151200000000D+06 -.540167093277D-07 -.200914862131D+01 -.931322574615D-07
     .968737909399D+00  .227968750000D+03  .526718076334D+00 -.778389565907D-08
     .596810573842D-09  .100000000000D+01  .183900000000D+04  .000000000000D+00
     .240000000000D+01  .000000000000D+00 -.149011611938D-07  .970000000000D+02
     .144006000000D+06  .400000000000D+01
20 15  4  6 18  0  0.0  .307547394186D-03  .397903932026D-11  .000000000000D+00
     .600000000000D+02 -.199375000000D+02  .511521306916D-08 -.793408143125D+00
    -.910833477974D-06  .571992632467D-02  .110957771540D-04  .515578822899D+04
     .151200000000D+06 -.111758708954D-07 -.796528743419D-01  .577419996262D-07
     .926823508502D+00  .147562500000D+03  .122052450850D+01 -.833499004293D-08
    -.358586365133D-09  .100000000000D+01  .183900000000D+04  .000000000000D+00
     .240000000000D+01  .000000000000D+00 -.838190317154D-08  .600000000000D+02
     .144006000000D+06  .400000000000D+01
